NUSAT-1 (FRESCO)        
1 41557U 16033B   22216.17963472  .00005981  00000+0  17472-3 0  9993
2 41557  97.3904 313.9945 0010517 197.8358   8.7226 15.35633738344702
BEESAT-4                
1 41619U 16040W   22216.13258743  .00006901  00000+0  22407-3 0  9991
2 41619  97.2130 265.5154 0007503 311.9116  48.1486 15.32224027328024
CAS-2T & KS-1Q          
1 41847U 16066G   22216.12532998  .00000389  00000+0  67210-4 0  9994
2 41847  98.5481 280.7368 0364543  67.3851 296.5467 14.38674576301206
NAYIF-1 (EO-88)         
1 42017U 17008BX  22215.42658790  .00008823  00000+0  25458-3 0  9990
2 42017  97.2654 280.8934 0006374  84.9359 275.2612 15.35904398304280
ZHUHAI-1 02 (CAS-4B)    
1 42759U 17034B   22216.08190723  .00001434  00000+0  94424-4 0  9993
2 42759  43.0177  70.1172 0010145 235.8218 259.8646 15.12177373283560
ZHUHAI-1 01 (CAS-4A)    
1 42761U 17034D   22216.11676209  .00001708  00000+0  10976-3 0  9991
2 42761  43.0178  68.6743 0010102 239.0448 266.6315 15.12265334283579
MAX VALIER SAT          
1 42778U 17036P   22215.56058027  .00004030  00000+0  15159-3 0  9990
2 42778  97.2018 255.0545 0011788 150.5642 209.6264 15.27631390284090
RADFXSAT (FOX-1B)       
1 43017U 17073E   22216.12224690  .00002623  00000+0  19889-3 0  9992
2 43017  97.6690 108.3586 0248656  32.0487 329.5574 14.81696416254170
FOX-1D (AO-92)          
1 43137U 18004AC  22215.84569072  .00004673  00000+0  16279-3 0  9991
2 43137  97.3662 290.5955 0007589 181.5540 178.5678 15.30133124253590
DIWATA-2B               
1 43678U 18084H   22216.12641312  .00000205  00000+0  25867-4 0  9990
2 43678  97.9773 349.9681 0010983 123.6002 236.6282 14.92234868204964
ES'HAIL 2               
1 43700U 18090A   22216.08101868  .00000151  00000+0  00000+0 0  9992
2 43700   0.0168  89.0531 0001644  81.2426 197.2822  1.00271149 13757
FOX-1CLIFF (AO-95)      
1 43770U 18099N   22216.12971232  .00001560  00000+0  14154-3 0  9997
2 43770  97.6182 281.2406 0015768 114.1053 246.1820 14.96624992200143
ITASAT 1                
1 43786U 18099AE  22215.78448129  .00000921  00000+0  85336-4 0  9990
2 43786  97.6204 281.8486 0016202 109.0096 251.2883 14.96741812200139
JY1SAT (JO-97)          
1 43803U 18099AX  22215.65230927  .00001263  00000+0  11368-3 0  9994
2 43803  97.6165 281.4886 0016081 108.7179 251.5790 14.97278413200131
UWE-4                   
1 43880U 18111E   22215.68468015  .00001684  00000+0  14602-3 0  9999
2 43880  97.6638 121.1692 0012835 153.7065 206.4812 14.98362201196771
NEXUS (FO-99)           
1 43937U 19003F   22216.13690187  .00006136  00000+0  20197-3 0  9994
2 43937  97.1277 247.6553 0019223 348.9022  11.1794 15.31673616197276
PSAT2 (NO-104)          
1 44354U 19036R   22215.31484680  .00035576 -57660-5  28489-3 0  9995
2 44354  28.5222 212.2794 0214982 140.9767 220.6559 15.44235272171924
JAISAT-1                
1 44419U 19038F   22215.64541079  .00003974  00000+0  19851-3 0  9990
2 44419  97.6387 186.1755 0017970 333.8045  26.2278 15.17943361170215
DUCHIFAT-3              
1 44854U 19089C   22216.19622638  .00001260  00000+0  10211-3 0  9998
2 44854  36.9657 177.2481 0008969 256.6068 103.3676 15.01326585145112
CAS-6 (TO-108)          
1 44881U 19093C   22216.18641625  .00000217  00000+0  34109-4 0  9993
2 44881  97.8924 294.7102 0015818  35.3967 324.8306 14.81774226141843
RS-44 & BREEZE-KM R/B   
1 44909U 19096E   22216.03832989  .00000018  00000+0  29288-4 0  9997
2 44909  82.5208 198.6615 0216755 208.2129 150.7093 12.79714133121646
ORBITAL FACTORY 2 (OF-2)
1 45113U 19071C   22215.34780292  .00016124  00000+0  31651-3 0  9991
2 45113  51.6367 188.2709 0009735 354.4277   5.6601 15.47435570140638
HUSKYSAT-1 (HO-107)     
1 45119U 19071J   22216.09622019  .00012259  00000+0  25258-3 0  9993
2 45119  51.6370 184.9902 0009471 353.1218   6.9638 15.46282339140731
BY70-2                  
1 45857U 20042B   22216.08827839  .00002758  00000+0  36866-3 0  9998
2 45857  97.9552 292.4886 0009094 329.4141  30.6514 14.80299332112502
SALSAT                  
1 46495U 20068K   22215.78052624  .00001309  00000+0  97262-4 0  9992
2 46495  97.7310 157.1043 0017858 115.2366 245.0714 15.04674055101306
BY70-3                  
1 46839U 20079N   22216.10987307  .00011714  00000+0  26101-3 0  9992
2 46839  97.1951 287.6309 0006372 146.4163 301.1240 15.43730280 97596
RADFXSAT-2 (AO-109)     
1 47311U 21002C   22215.65645841  .00004753  00000+0  19332-3 0  9991
2 47311  60.6843 184.4697 0025301  13.4000 346.7754 15.25887332 85668
UVSQ-SAT                
1 47438U 21006AB  22215.60807773  .00002698  00000+0  14307-3 0  9997
2 47438  97.4339 273.6560 0013442 109.9677 250.3005 15.16145517 84424
DIY-1 (ARDUIQUBE)       
1 47963U 21022AH  22215.66516553  .00008187  00000+0  44444-3 0  9991
2 47963  97.5264 116.5059 0015602 337.3131  22.7409 15.14692166 74091
XW-3 (CAS-9)            
1 50466U 21131B   22216.16612350 -.00000033  00000+0  38381-5 0  9990
2 50466  98.5793 293.3953 0004646  23.7243 336.4157 14.38512645 31775
TEVEL-3                 
1 50988U 22002E   22216.12295237  .00002878  00000+0  15792-3 0  9991
2 50988  97.4792 282.3183 0007973 256.7348 160.0781 15.14926107 30639
TEVEL-8                 
1 50989U 22002F   22216.12472355  .00002732  00000+0  15030-3 0  9994
2 50989  97.4801 282.3427 0007960 256.0448 133.6573 15.14872411 30635
TEVEL-5                 
1 50998U 22002Q   22216.12857647  .00002833  00000+0  15336-3 0  9996
2 50998  97.4780 282.4428 0009548 251.2591 165.1920 15.15411299 30644
TEVEL-6                 
1 50999U 22002R   22216.12816557  .00002841  00000+0  15381-3 0  9991
2 50999  97.4776 282.4404 0009501 251.4176 165.4089 15.15415522 30646
TEVEL-1                 
1 51013U 22002AF  22216.12582480  .00002801  00000+0  15390-3 0  9990
2 51013  97.4786 282.3015 0007891 256.1089 160.1512 15.14900212 30633
TEVEL-7                 
1 51062U 22002CG  22216.13214199  .00002740  00000+0  15078-3 0  9999
2 51062  97.4801 282.3376 0007931 254.6656 166.7534 15.14863218 30633
TEVEL-4                 
1 51063U 22002CH  22216.19997851  .00002718  00000+0  14964-3 0  9997
2 51063  97.4796 282.4010 0007972 254.4771 172.7032 15.14854926 30641
TEVEL-2                 
1 51069U 22002CP  22216.12425823  .00002840  00000+0  15591-3 0  9994
2 51069  97.4789 282.3077 0007932 256.5349 160.6502 15.14918198 30630
CUTE-1 (CO-55)          
1 27844U 03031E   22215.55446858  .00000083  00000+0  57029-4 0  9996
2 27844  98.6788 222.5295 0009253 332.5502  27.5186 14.22474767990561
CUBESAT XI-IV (CO-57)   
1 27848U 03031J   22215.81361516  .00000068  00000+0  50625-4 0  9994
2 27848  98.6833 223.2945 0009387 346.6123  13.4804 14.22029036990419
CUBESAT XI-V            
1 28895U 05043F   22215.32419245  .00000302  00000+0  65988-4 0  9990
2 28895  98.1125 345.9963 0016422 358.6498   1.4658 14.64410942894276
CUTE-1.7+APD II (CO-65) 
1 32785U 08021C   22215.71871243  .00000766  00000+0  85492-4 0  9991
2 32785  97.6604 185.0814 0014274  78.7412 281.5410 14.89722650773522
AAUSAT-II               
1 32788U 08021F   22215.94160745  .00001381  00000+0  12227-3 0  9996
2 32788  97.5354 199.5904 0010443 329.7689  30.2930 14.97797586775645
DELFI-C3 (DO-64)        
1 32789U 08021G   22215.86242730  .00005389  00000+0  29406-3 0  9992
2 32789  97.3374 240.4708 0011396 150.6682 209.5192 15.14702102779102
SEEDS II (CO-66)        
1 32791U 08021J   22215.49883734  .00001115  00000+0  11276-3 0  9998
2 32791  97.6145 190.3117 0013759  39.3037 320.9179 14.92867491774211
SWISSCUBE               
1 35932U 09051B   22215.83371286  .00000231  00000+0  62488-4 0  9994
2 35932  98.5640  73.0836 0006255 262.0877  97.9610 14.56914084682991
BEESAT-1                
1 35933U 09051C   22215.58233165  .00000202  00000+0  55964-4 0  9999
2 35933  98.5579  74.4225 0004488 279.1309  80.9381 14.56924087683032
ITUPSAT1                
1 35935U 09051E   22215.83479221  .00000167  00000+0  48995-4 0  9990
2 35935  98.5680  74.7252 0006814 280.8621  79.1809 14.56029084682779
TISAT 1                 
1 36799U 10035E   22215.83609476  .00000626  00000+0  66029-4 0  9998
2 36799  98.1785  68.1423 0010630 304.8960  55.1259 14.93071994655031
M-CUBED & EXP-1 PRIME   
1 37855U 11061F   22215.86193996  .00003382  00000+0  15176-3 0  9998
2 37855 101.7157   0.0653 0151614 280.1583  78.2562 15.12966126588405
AEROCUBE 4.5A           
1 38767U 12048K   22215.67884435  .00002123  00000+0  15627-3 0  9994
2 38767  64.6665 322.5097 0174031 249.7385 108.4947 14.95109888157849
AEROCUBE 4.5B           
1 38768U 12048L   22215.61012623  .00002771  00000+0  18188-3 0  9995
2 38768  64.6651 276.1942 0160548 245.2227 113.2113 14.99996510158224
STRAND-1                
1 39090U 13009E   22216.12153836  .00000067  00000+0  38342-4 0  9992
2 39090  98.4030  53.0090 0010031 124.9237 235.2893 14.35309592494254
BRITE-AUSTRIA           
1 39091U 13009F   22215.54923872  .00000024  00000+0  23175-4 0  9994
2 39091  98.4047  51.6269 0011322 133.3275 226.8856 14.35287983494181
SOMP                    
1 39134U 13015E   22215.58910145  .00006195  00000+0  21865-3 0  9990
2 39134  64.8600 267.0661 0035800 273.4039  86.2998 15.29575118514060
BEESAT-3                
1 39135U 13015F   22215.69647568  .00004619  00000+0  19084-3 0  9998
2 39135  64.8661 303.9187 0039269 278.4090  81.2589 15.24633733513317
BEESAT-2                
1 39136U 13015G   22215.70984950  .00004432  00000+0  19186-3 0  9996
2 39136  64.8753 312.3140 0019737 296.4815  63.4290 15.23614083513111
NEE-01 PEGASO           
1 39151U 13018B   22216.00881038  .00000493  00000+0  70404-4 0  9997
2 39151  97.9942 321.5179 0018193 100.7445 259.5817 14.81034248500728
ESTCUBE 1               
1 39161U 13021C   22216.10971325  .00000405  00000+0  70561-4 0  9999
2 39161  97.9067 292.1066 0008028 268.7775  91.2520 14.73025803496489
